[{"OBJECT_NAME":"OBJECT F","OBJECT_ID":"2023-072F","EPOCH":"2026-03-09T23:31:37.259904","MEAN_MOTION":15.29470958,"ECCENTRICITY":0.00062878,"INCLINATION":97.5173,"RA_OF_ASC_NODE":265.798,"ARG_OF_PERICENTER":19.0017,"MEAN_ANOMALY":341.1456,"EPHEMERIS_TYPE":0,"CLASSIFICATION_TYPE":"U","NORAD_CAT_ID":56748,"ELEMENT_SET_NO":999,"REV_AT_EPOCH":15460,"BSTAR":0.00043416252,"MEAN_MOTION_DOT":0.00012341,"MEAN_MOTION_DDOT":0},{"OBJECT_NAME":"STARLINK-31493","OBJECT_ID":"2024-057K","EPOCH":"2026-03-09T15:29:07.391616","MEAN_MOTION":15.27577663,"ECCENTRICITY":0.00010343,"INCLINATION":43.0016,"RA_OF_ASC_NODE":187.2126,"ARG_OF_PERICENTER":252.6134,"MEAN_ANOMALY":107.4605,"EPHEMERIS_TYPE":0,"CLASSIFICATION_TYPE":"U","NORAD_CAT_ID":59329,"ELEMENT_SET_NO":999,"REV_AT_EPOCH":10983,"BSTAR":-1.1899621e-5,"MEAN_MOTION_DOT":-5.89e-6,"MEAN_MOTION_DDOT":0}]
